{"type":"FeatureCollection","features":[{"type":"Feature","geometry":{"coordinates":[36.656107,32.779874],"type":"Point"},"properties":{},"id":"U0NTk"},{"type":"Feature","geometry":{"coordinates":[1.893747,46.608295],"type":"Point"},"properties":{},"id":"gyOTk"},{"type":"Feature","geometry":{"coordinates":[],"type":"LineString"},"properties":{},"id":"Y3NDM"},{"type":"Feature","geometry":{"coordinates":[36.323794,33.553892],"type":"Point"},"properties":{"name":"AbdAllah Alharisi"},"id":"IzNzc"},{"type":"Feature","geometry":{"coordinates":[36.721802,34.732584],"type":"Point"},"properties":{"name":"Ahmad - أحمد"},"id":"QwMjA"},{"type":"Feature","geometry":{"coordinates":[36.561694,35.613595],"type":"Point"},"properties":{"name":"Ahmad Zaator "},"id":"M2OTM"},{"type":"Feature","geometry":{"coordinates":[37.363129,37.068328],"type":"Point"},"properties":{"name":"Anas KASHATA"},"id":"EwMzA"},{"type":"Feature","geometry":{"coordinates":[1.093972,49.441579],"type":"Point"},"properties":{"name":"Bakkar"},"id":"U4NTY"},{"type":"Feature","geometry":{"coordinates":[28.949431,41.020851],"type":"Point"},"properties":{"name":"Baraa"},"id":"kwMTU"},{"type":"Feature","geometry":{"coordinates":[28.938192,41.013402],"type":"Point"},"properties":{"name":"Bassam Reis"},"id":"c1MzY"},{"type":"Feature","geometry":{"coordinates":[28.830104,41.055946],"type":"Point"},"properties":{"name":"bisher Al Ahdab","country":"Türkiye","countrycode":"Türkiye"},"id":"AzNDI"},{"type":"Feature","geometry":{"coordinates":[28.973286,41.007432],"type":"Point"},"properties":{"name":"Dana"},"id":"MzNjg"},{"type":"Feature","geometry":{"coordinates":[14.414063,48.104543],"type":"Point"},"properties":{"name":"Dana Bakdounes","country":"istanbul "},"id":"g3NDU"},{"type":"Feature","geometry":{"coordinates":[28.854218,41.016275],"type":"Point"},"properties":{"name":"Dana Bakdounes"},"id":"c2NDk"},{"type":"Feature","geometry":{"coordinates":[4.480654,51.027982],"type":"Point"},"properties":{"_umap_options":{"color":"Crimson","iconClass":"Drop"},"name":"Eyad","description":"\n\n"},"id":"Y5OTc"},{"type":"Feature","geometry":{"coordinates":[8.519897,49.462769],"type":"Point"},"properties":{"name":"Fadel Kaadan"},"id":"cyODU"},{"type":"Feature","geometry":{"coordinates":[1.8883335,46.603354],"type":"Point"},"properties":{"osm_type":"R","osm_id":2202162,"extent":[-178.3873749,51.3055721,172.3057152,-50.2187169],"country":"France","osm_key":"place","countrycode":"FR","osm_value":"country","name":"France","type":"country"},"id":"YzMDM"},{"type":"Feature","geometry":{"coordinates":[31.223145,29.990623],"type":"Point"},"properties":{"name":"Giza الجيزه"},"id":"k5MTk"},{"type":"Feature","geometry":{"coordinates":[36.408842,33.569804],"type":"Point"},"properties":{"name":"Hatem"},"id":"M5MDA"},{"type":"Feature","geometry":{"coordinates":[-6.306152,53.348011],"type":"Point"},"properties":{"name":"Housam"},"id":"QzOTA"},{"type":"Feature","geometry":{"coordinates":[9.181824,48.776103],"type":"Point"},"properties":{"name":"Ibrahem Alsalamh"},"id":"E0ODE"},{"type":"Feature","geometry":{"coordinates":[38.858643,35.228779],"type":"Point"},"properties":{"name":"iool"},"id":"k5NTY"},{"type":"Feature","geometry":{"coordinates":[36.30518,33.490255],"type":"Point"},"properties":{"name":"jabir-sherif","description":"project worked on recently but didn't finished it - https://www.youtube.com/watch?v=MMuejcdBNqQ"},"id":"UxODE"},{"type":"Feature","geometry":{"coordinates":[4.547034,7.780305],"type":"Point"},"properties":{"name":"Kayode Arokoola","country":"Nigeria","countrycode":"+234"},"id":"U1Njg"},{"type":"Feature","geometry":{"coordinates":[36.494247,33.88184],"type":"Point"},"properties":{"name":"Khaled"},"id":"c2NTk"},{"type":"Feature","geometry":{"coordinates":[41.230956,37.044961],"type":"Point"},"properties":{"name":"Khaled "},"id":"A4NzA"},{"type":"Feature","geometry":{"coordinates":[36.319771,33.440323],"type":"Point"},"properties":{"name":"Laila Khaled"},"id":"U2ODY"},{"type":"Feature","geometry":{"coordinates":[36.142273,35.9391],"type":"Point"},"properties":{"name":"Mahmoud Kanaan"},"id":"E5ODI"},{"type":"Feature","geometry":{"coordinates":[35.53131,33.884027],"type":"Point"},"properties":{"name":"Mahmoud Kanaan","country":"Lebanon"},"id":"UyMjI"},{"type":"Feature","geometry":{"coordinates":[36.670303,33.758599],"type":"Point"},"properties":{"name":"Marianna Al Tabbaa","country":"United States"},"id":"M5MDA"},{"type":"Feature","geometry":{"coordinates":[36.845281,36.516695],"type":"Point"},"properties":{"name":"Muhammad Khair "},"id":"I1NzQ"},{"type":"Feature","geometry":{"coordinates":[29.429038,40.80078],"type":"Point"},"properties":{"name":"Muhanad Azmi"},"id":"M0Njc"},{"type":"Feature","geometry":{"coordinates":[46.667175,24.806681],"type":"Point"},"properties":{"name":"Muhannad | مهند"},"id":"E0MzM"},{"type":"Feature","geometry":{"coordinates":[36.320801,33.504759],"type":"Point"},"properties":{"name":"Omran"},"id":"AzMTU"},{"type":"Feature","geometry":{"coordinates":[36.316181,33.530386],"type":"Point"},"properties":{"name":"Osama Shakaki"},"id":"I3Nzg"},{"type":"Feature","geometry":{"coordinates":[36.281662,33.512618],"type":"Point"},"properties":{"name":"Qusai Nasr Location"},"id":"AxODA"},{"type":"Feature","geometry":{"coordinates":[4.449463,45.517895],"type":"Point"},"properties":{"name":"Raafat Mahmalji"},"id":"g1ODc"},{"type":"Feature","geometry":{"coordinates":[12.593079,44.087585],"type":"Point"},"properties":{"name":"Rabe Bana"},"id":"M3NDQ"},{"type":"Feature","geometry":{"coordinates":[36.249968,33.435558],"type":"Point"},"properties":{"name":"Rama ajaj"},"id":"IxNTA"},{"type":"Feature","geometry":{"coordinates":[36.348035,33.487897],"type":"Point"},"properties":{"name":"Rama Khaled "},"id":"EyNTM"},{"type":"Feature","geometry":{"coordinates":[1.063061,49.45921],"type":"Point"},"properties":{"name":"Rami"},"id":"k1Mzc"},{"type":"Feature","geometry":{"coordinates":[28.854904,41.010475],"type":"Point"},"properties":{"name":"Rand"},"id":"czMTQ"},{"type":"Feature","geometry":{"coordinates":[28.913612,41.054829],"type":"Point"},"properties":{"name":"Raya Atour"},"id":"Y2Nzg"},{"type":"Feature","geometry":{"coordinates":[46.772232,24.738335],"type":"Point"},"properties":{"name":"Rayah"},"id":"g1MDI"},{"type":"Feature","geometry":{"coordinates":[36.218371,33.521916],"type":"Point"},"properties":{"name":"Redwan Jano"},"id":"c3ODU"},{"type":"Feature","geometry":{"coordinates":[10.316769,52.156729],"type":"Point"},"properties":{"name":"Salzgitter ","country":"Germany "},"id":"IwNjU"},{"type":"Feature","geometry":{"coordinates":[36.801191,33.004203],"type":"Point"},"properties":{"name":"Sena","country":"دمشق","countrycode":"٠١١"},"id":"UxNDM"},{"type":"Feature","geometry":{"coordinates":[36.195901,33.587838],"type":"Point"},"properties":{"name":"Tareq Nassry"},"id":"E4Nzk"},{"type":"Feature","geometry":{"coordinates":[4.943963,43.181147],"type":"Point"},"properties":{"name":"Thalia Rahme","country":"France"},"id":"M0NzQ"},{"type":"Feature","geometry":{"coordinates":[37.1631,36.1994],"type":"Point"},"properties":{"name":"Vacih Davalibi/ وجيه دواليبي"},"id":"A4MTk"},{"type":"Feature","geometry":{"coordinates":[37.326736,37.074354],"type":"Point"},"properties":{"name":"Zekeriya Rifai"},"id":"k3NDE"},{"type":"Feature","geometry":{"coordinates":[36.395538,33.571254],"type":"Point"},"properties":{"name":"ZIAD "},"id":"Y5OTc"},{"type":"Feature","geometry":{"coordinates":[-2.449951,40.664703],"type":"Point"},"properties":{"name":"Zineb Eddahmani","description":"Geoinformation engineer","country":"France"},"id":"EyNTg"},{"type":"Feature","geometry":{"coordinates":[139.790039,35.710838],"type":"Point"},"properties":{"name":"أمين"},"id":"U2Mjc"},{"type":"Feature","geometry":{"coordinates":[36.817932,35.782044],"type":"Point"},"properties":{"name":"احلام "},"id":"k1MjM"},{"type":"Feature","geometry":{"coordinates":[28.957796,41.019079],"type":"Point"},"properties":{"name":"بلال"},"id":"g2NzM"},{"type":"Feature","geometry":{"coordinates":[36.381713,33.520045],"type":"Point"},"properties":{"name":"خلود صادق"},"id":"Q3ODk"},{"type":"Feature","geometry":{"coordinates":[28.78418,41.10167],"type":"Point"},"properties":{"name":"رحيمة علوظي"},"id":"U0MzA"},{"type":"Feature","geometry":{"coordinates":[36.084595,34.799145],"type":"Point"},"properties":{"_umap_options":{"color":"Aqua","iconClass":"Circle"},"description":"https://t.me/kareem_the_forest","name":"كريم أحمد"},"id":"YwNTk"},{"type":"Feature","geometry":{"coordinates":[36.219915,33.525479],"type":"Point"},"properties":{"name":"محمد رامي صبحي صباغ"},"id":"g5NzA"},{"type":"Feature","geometry":{"coordinates":[36.221158,33.553882],"type":"Point"},"properties":{"name":"Omar AbedRaboh - عمر عبدربه "},"id":"A0MjU"}],"_umap_options":{"displayOnLoad":true,"inCaption":true,"browsable":true,"editMode":"advanced","name":"Layer 1","id":"4e4a68af-e16d-455a-ab95-201c4f5981f1","remoteData":{},"permissions":{"edit_status":3}}}