{"type":"FeatureCollection","features":[{"type":"Feature","geometry":{"coordinates":[36.296949,33.524796],"type":"Point"},"properties":{},"id":"k0MDM"},{"type":"Feature","geometry":{"coordinates":[37.038709,36.606674],"type":"Point"},"properties":{},"id":"g4ODc"},{"type":"Feature","geometry":{"coordinates":[39.192524,36.432392],"type":"Point"},"properties":{},"id":"E5Nzc"},{"type":"Feature","geometry":{"coordinates":[36.364231,33.557394],"type":"Point"},"properties":{"name":"Abdalmenam Ebrahim"},"id":"kyNzI"},{"type":"Feature","geometry":{"coordinates":[36.380768,33.572246],"type":"Point"},"properties":{"name":"Abdalmenam Ebrahim"},"id":"U2MzY"},{"type":"Feature","geometry":{"coordinates":[36.310357,33.607135],"type":"Point"},"properties":{"name":"Abdulrhman-bashir"},"id":"c2NDE"},{"type":"Feature","geometry":{"coordinates":[106.699219,-6.09686],"type":"Point"},"properties":{"name":"Adi"},"id":"gJaCA"},{"type":"Feature","geometry":{"coordinates":[39.009876,35.951127],"type":"Point"},"properties":{"name":"Ahmad Al Mohammad "},"id":"UxMjE"},{"type":"Feature","geometry":{"coordinates":[36.075299,33.434198],"type":"Point"},"properties":{"name":"Ahmad fahd"},"id":"E4NTM"},{"type":"Feature","geometry":{"coordinates":[36.515439,33.406627],"type":"Point"},"properties":{"name":"Ahmad Zaator ","description":"اقيم في هذا المكان لمدة 14 يوم في الشهر مقسمة على 7 ايام منفصلة لكل قسم"},"id":"U0MTg"},{"type":"Feature","geometry":{"coordinates":[-5.979137,37.390967],"type":"Point"},"properties":{"name":"Alfonso Ismael Manzano Rodríguez"},"id":"1Tay5"},{"type":"Feature","geometry":{"coordinates":[36.635363,35.930072],"type":"Point"},"properties":{"name":"Austin Formally Hadi (: أوستن هادي رسميًا ","description":"# Idlib City\n\n*“Let’s raise a city that no one knows — a place that was never properly shown on maps and never had any accurate data.”*\n\n---\n\n## About Idlib\n\nIdlib is a historic city in northwestern Syria, surrounded by picturesque landscapes and ancient ruins. Over the centuries, it has been home to diverse cultures, trade routes, and civilizations. Despite its rich heritage, Idlib has often been overlooked in global maps and lacks detailed data in many sources.  \n\nThe city is known for its traditional markets, olive groves, and ancient mosques, which reflect a deep history that dates back thousands of years. Its people are known for their resilience and strong sense of community, keeping the cultural and historical essence alive even during challenging times.\n\n---\n\n## Key Features of Idlib\n\n- **Historic Sites:** Idlib hosts several archaeological sites and centuries-old buildings that showcase its vibrant past.  \n- **Markets & Culture:** The local souks are filled with spices, textiles, and handcrafted goods, representing a fusion of tradition and local craftsmanship.  \n- **Natural Beauty:** The surrounding landscapes include hills, rivers, and olive farms, giving the city a serene and rustic charm.  \n\n---\n\n## Explore Idlib\n\n- Learn more about Idlib on [[https://en.wikipedia.org/wiki/Idlib|Wikipedia]]  \n- Travel and culture guide: [[https://www.lonelyplanet.com/syria/idlib|Lonely Planet: Idlib]]  \n- Historical archives: [[https://www.worldhistory.org/Idlib/|World History: Idlib]]\n\n---\n\n## Images of Idlib\n\n{{https://upload.wikimedia.org/wikipedia/commons/8/8d/Idlib_City.jpg|600}}  \n{{https://upload.wikimedia.org/wikipedia/commons/f/fb/Idlib_Souk.jpg|600}}  \n{{https://upload.wikimedia.org/wikipedia/commons/5/55/Idlib_Olive_Groves.jpg|600}}  \n\n---\n\n## Interactive Map\n\nExplore Idlib interactively on Google Maps:  \n{{{https://www.google.com/maps/embed?pb=!1m18!1m12!1m3!1d12096.455!2d36.640!3d35.930|400*600}}}\n\n---\n\n## Why Idlib Matters\n\nIdlib is more than just a city; it is a symbol of Syria’s rich heritage and cultural diversity. Its overlooked status on maps reflects a larger story of hidden histories waiting to be discovered. By documenting and sharing information about Idlib, we can help bring attention to a city that truly deserves recognition.  \n\n*“Let’s raise a city that no one knows — a place that was never properly shown on maps and never had any accurate data.”*\n"},"id":"AxOTI"},{"type":"Feature","geometry":{"coordinates":[36.295643,33.520289],"type":"Point"},"properties":{"name":"Bassel "},"id":"k1NTI"},{"type":"Feature","geometry":{"coordinates":[55.195313,25.050769],"type":"Point"},"properties":{"name":"Don"},"id":"UzNzY"},{"type":"Feature","geometry":{"coordinates":[-0.97671,51.431618],"type":"Point"},"properties":{"name":"Eaad Elsafadi"},"id":"g2MDI"},{"type":"Feature","geometry":{"coordinates":[36.31275,33.552555],"type":"Point"},"properties":{"name":"Ez Aldin - عز الدين"},"id":"Q5NjM"},{"type":"Feature","geometry":{"coordinates":[39.998914,35.450655],"type":"Point"},"properties":{"name":"Feras Al-Mousa"},"id":"QyMDc"},{"type":"Feature","geometry":{"coordinates":[36.288319,33.523289],"type":"Point"},"properties":{"name":"Hamzah Abdulaal "},"id":"U0MDE"},{"type":"Feature","geometry":{"coordinates":[37.174988,36.183382],"type":"Point"},"properties":{"name":"malaz"},"id":"ExMzU"},{"type":"Feature","geometry":{"coordinates":[36.214067,33.525315],"type":"Point"},"properties":{"name":"Modar AlNachar"},"id":"xkziT"},{"type":"Feature","geometry":{"coordinates":[36.304133,33.597146],"type":"Point"},"properties":{"name":"Mohamad"},"id":"Y0ODQ"},{"type":"Feature","geometry":{"coordinates":[36.332534,33.525786],"type":"Point"},"properties":{"name":"Mohamad shaban"},"id":"IzOTk"},{"type":"Feature","geometry":{"coordinates":[8.164158,49.021],"type":"Point"},"properties":{"name":"Mohammad hamoud"},"id":"gxODA"},{"type":"Feature","geometry":{"coordinates":[36.176534,33.532235],"type":"Point"},"properties":{"name":"Mohammad Hamoud"},"id":"UzMDg"},{"type":"Feature","geometry":{"coordinates":[36.232524,33.426785],"type":"Point"},"properties":{"name":"Mohammad Taha Almala ","description":""},"id":"k4MTk"},{"type":"Feature","geometry":{"coordinates":[36.394586,33.566012],"type":"Point"},"properties":{"_umap_options":{"color":"DarkGreen","iconClass":"Drop"},"name":"Muhammad khair Almshawit "},"id":"k4MTA"},{"type":"Feature","geometry":{"coordinates":[-73.613892,45.504422],"type":"Point"},"properties":{"name":"Omar Al Faleh"},"id":"MyMTQ"},{"type":"Feature","geometry":{"coordinates":[13.342252,52.595645],"type":"Point"},"properties":{"name":"Omran"},"id":"5B30d"},{"type":"Feature","geometry":{"coordinates":[5.738983,45.179293],"type":"Point"},"properties":{"name":"Rami Karnib"},"id":"cAubh"},{"type":"Feature","geometry":{"coordinates":[36.394516,33.566054],"type":"Point"},"properties":{"_umap_options":{"color":"Plum","iconClass":"Drop","iconOpacity":1},"name":"Raneem"},"id":"U1MjY"},{"type":"Feature","geometry":{"coordinates":[36.511328,33.827012],"type":"Point"},"properties":{"name":"walaa alloush"},"id":"lprsJ"},{"type":"Feature","geometry":{"coordinates":[36.296002,33.534169],"type":"Point"},"properties":{"name":"Walid"},"id":"UwMDI"},{"type":"Feature","geometry":{"coordinates":[36.240442,33.490623],"type":"Point"},"properties":{"name":"Walid Nasri - وليد نصري"},"id":"UwNTQ"},{"type":"Feature","geometry":{"coordinates":[36.214208,33.527078],"type":"Point"},"properties":{"name":"Yazan"},"id":"c1MTU"},{"type":"Feature","geometry":{"coordinates":[37.045643,36.586793],"type":"Point"},"properties":{"name":"حلب - اعزاز"},"id":"E4NjU"},{"type":"Feature","geometry":{"coordinates":[36.377995,33.519669],"type":"Point"},"properties":{"name":"رائد جمعة"},"id":"M3MDM"},{"type":"Feature","geometry":{"coordinates":[37.123822,36.186676],"type":"Point"},"properties":{"name":"ريم وزان"},"id":"k3MTM"},{"type":"Feature","geometry":{"coordinates":[37.14867,36.189412],"type":"Point"},"properties":{"name":"محمد أنس "},"id":"k4ODM"},{"type":"Feature","geometry":{"coordinates":[36.29718,33.493599],"type":"Point"},"properties":{"name":"محمد خير حبيب"},"id":"Q1NTk"},{"type":"Feature","geometry":{"coordinates":[36.234369,33.461449],"type":"Point"},"properties":{"name":"Ahmad Nassar"},"id":"jpyCY"}],"properties":{"displayOnLoad":true,"inCaption":true,"browsable":true,"name":"Layer 2","fields":[{"key":"name","type":"String"},{"key":"description","type":"Text"}],"remoteData":{}},"id":"3d6af9a8-72d8-4351-b867-abe909088ece","rank":1}